CSS (TIANHE)            
1 48274U 21035A   24189.74314325  .00038365  00000+0  40188-3 0  9997
2 48274  41.4690 317.6531 0004464 347.3216  12.7511 15.63646273182316
